{"type": "FeatureCollection", "features": [ {"type": "Feature", "properties": {"norad_id": 35645, "name": "COSMOS 2251 DEB", "group": "cosmos-2251-debris", "lat": 73.92618357622757, "lon": -168.72752325616037, "alt_km": 782.6900522208598, "timestamp": "2025-12-03T15:48:03.462498+00:00", "meta": {"OBJECT_NAME": "COSMOS 2251 DEB", "OBJECT_ID": "1993-036ANL", "EPOCH": "2025-12-01T15:12:41.067360", "MEAN_MOTION": 14.45294467, "ECCENTRICITY": 0.00693993, "INCLINATION": 73.964, "RA_OF_ASC_NODE": 108.5275, "ARG_OF_PERICENTER": 267.6701, "MEAN_ANOMALY": 91.651, "EPHEMERIS_TYPE": 0, "CLASSIFICATION_TYPE": "U", "NORAD_CAT_ID": 35645, "ELEMENT_SET_NO": 999, "REV_AT_EPOCH": 86611, "BSTAR": 0.0022107239, "MEAN_MOTION_DOT": 7.975e-05, "MEAN_MOTION_DDOT": 0}, "tle": {"line1": "1 35645U 93036ANL 25335.63380865  .00007975  00000+0  22107-2 0  9992", "line2": "2 35645  73.9640 108.5275 0069399 267.6701  91.6510 14.45294467866117"}}, "geometry": {"type": "Point", "coordinates": [-168.72752325616037, 73.92618357622757]}}, {"type": "Feature", "properties": {"norad_id": 35646, "name": "COSMOS 2251 DEB", "group": "cosmos-2251-debris", "lat": -11.361192340889104, "lon": -106.22735589640095, "alt_km": 771.8652244013601, "timestamp": "2025-12-03T15:48:03.462507+00:00", "meta": {"OBJECT_NAME": "COSMOS 2251 DEB", "OBJECT_ID": "1993-036ANM", "EPOCH": "2025-11-30T17:47:23.483328", "MEAN_MOTION": 13.40777703, "ECCENTRICITY": 0.04579187, "INCLINATION": 73.8717, "RA_OF_ASC_NODE": 75.0665, "ARG_OF_PERICENTER": 187.2005, "MEAN_ANOMALY": 328.3577, "EPHEMERIS_TYPE": 0, "CLASSIFICATION_TYPE": "U", "NORAD_CAT_ID": 35646, "ELEMENT_SET_NO": 999, "REV_AT_EPOCH": 81697, "BSTAR": 0.001266768, "MEAN_MOTION_DOT": 1.273e-05, "MEAN_MOTION_DDOT": 0}, "tle": {"line1": "1 35646U 93036ANM 25334.74124402  .00001273  00000+0  12668-2 0  9993", "line2": "2 35646  73.8717  75.0665 0457918 187.2005 328.3577 13.40777703816970"}}, "geometry": {"type": "Point", "coordinates": [-106.22735589640095, -11.361192340889104]}}, {"type": "Feature", "properties": {"norad_id": 35647, "name": "COSMOS 2251 DEB", "group": "cosmos-2251-debris", "lat": -39.95378264459632, "lon": 145.34865968439013, "alt_km": 784.3297503419499, "timestamp": "2025-12-03T15:48:03.462516+00:00", "meta": {"OBJECT_NAME": "COSMOS 2251 DEB", "OBJECT_ID": "1993-036ANN", "EPOCH": "2025-11-30T05:16:45.601536", "MEAN_MOTION": 14.43522503, "ECCENTRICITY": 0.00448795, "INCLINATION": 74.0228, "RA_OF_ASC_NODE": 317.854, "ARG_OF_PERICENTER": 60.3211, "MEAN_ANOMALY": 300.2402, "EPHEMERIS_TYPE": 0, "CLASSIFICATION_TYPE": "U", "NORAD_CAT_ID": 35647, "ELEMENT_SET_NO": 999, "REV_AT_EPOCH": 67483, "BSTAR": 0.00078586372, "MEAN_MOTION_DOT": 2.667e-05, "MEAN_MOTION_DDOT": 0}, "tle": {"line1": "1 35647U 93036ANN 25334.21997224  .00002667  00000+0  78586-3 0  9996", "line2": "2 35647  74.0228 317.8540 0044879  60.3211 300.2402 14.43522503674831"}}, "geometry": {"type": "Point", "coordinates": [145.34865968439013, -39.95378264459632]}}, {"type": "Feature", "properties": {"norad_id": 35650, "name": "COSMOS 2251 DEB", "group": "cosmos-2251-debris", "lat": 7.326254782394936, "lon": -145.25492662978488, "alt_km": 619.4558832702587, "timestamp": "2025-12-03T15:48:03.462524+00:00", "meta": {"OBJECT_NAME": "COSMOS 2251 DEB", "OBJECT_ID": "1993-036ANR", "EPOCH": "2025-12-03T03:49:53.171616", "MEAN_MOTION": 14.83206379, "ECCENTRICITY": 0.00144518, "INCLINATION": 74.0473, "RA_OF_ASC_NODE": 37.8389, "ARG_OF_PERICENTER": 91.0961, "MEAN_ANOMALY": 299.114, "EPHEMERIS_TYPE": 0, "CLASSIFICATION_TYPE": "U", "NORAD_CAT_ID": 35650, "ELEMENT_SET_NO": 999, "REV_AT_EPOCH": 87492, "BSTAR": 0.0022586801, "MEAN_MOTION_DOT": 0.000185, "MEAN_MOTION_DDOT": 0}, "tle": {"line1": "1 35650U 93036ANR 25337.15964319  .00018500  00000+0  22587-2 0  9997", "line2": "2 35650  74.0473  37.8389 0014451  91.0961 299.1140 14.83206379874924"}}, "geometry": {"type": "Point", "coordinates": [-145.25492662978488, 7.326254782394936]}}, {"type": "Feature", "properties": {"norad_id": 35660, "name": "COSMOS 2251 DEB", "group": "cosmos-2251-debris", "lat": 52.4219007107116, "lon": -51.55240291825526, "alt_km": 733.695658532989, "timestamp": "2025-12-03T15:48:03.462533+00:00", "meta": {"OBJECT_NAME": "COSMOS 2251 DEB", "OBJECT_ID": "1993-036APB", "EPOCH": "2025-11-30T04:59:11.152608", "MEAN_MOTION": 14.49858309, "ECCENTRICITY": 0.00181724, "INCLINATION": 74.0397, "RA_OF_ASC_NODE": 156.7551, "ARG_OF_PERICENTER": 306.9367, "MEAN_ANOMALY": 174.3672, "EPHEMERIS_TYPE": 0, "CLASSIFICATION_TYPE": "U", "NORAD_CAT_ID": 35660, "ELEMENT_SET_NO": 999, "REV_AT_EPOCH": 65689, "BSTAR": 0.00042239347, "MEAN_MOTION_DOT": 1.607e-05, "MEAN_MOTION_DDOT": 0}, "tle": {"line1": "1 35660U 93036APB 25334.20776797  .00001607  00000+0  42239-3 0  9999", "line2": "2 35660  74.0397 156.7551 0018172 306.9367 174.3672 14.49858309656890"}}, "geometry": {"type": "Point", "coordinates": [-51.55240291825526, 52.4219007107116]}}, {"type": "Feature", "properties": {"norad_id": 35661, "name": "COSMOS 2251 DEB", "group": "cosmos-2251-debris", "lat": 7.98326439492769, "lon": 100.13307601458808, "alt_km": 671.2478599403967, "timestamp": "2025-12-03T15:48:03.462542+00:00", "meta": {"OBJECT_NAME": "COSMOS 2251 DEB", "OBJECT_ID": "1993-036APC", "EPOCH": "2025-12-01T15:17:54.099744", "MEAN_MOTION": 14.86228294, "ECCENTRICITY": 0.00894294, "INCLINATION": 74.0123, "RA_OF_ASC_NODE": 101.8533, "ARG_OF_PERICENTER": 208.6797, "MEAN_ANOMALY": 150.945, "EPHEMERIS_TYPE": 0, "CLASSIFICATION_TYPE": "U", "NORAD_CAT_ID": 35661, "ELEMENT_SET_NO": 999, "REV_AT_EPOCH": 87703, "BSTAR": 0.0012388204, "MEAN_MOTION_DOT": 0.00011691, "MEAN_MOTION_DDOT": 0}, "tle": {"line1": "1 35661U 93036APC 25335.63743171  .00011691  00000+0  12388-2 0  9993", "line2": "2 35661  74.0123 101.8533 0089429 208.6797 150.9450 14.86228294877037"}}, "geometry": {"type": "Point", "coordinates": [100.13307601458808, 7.98326439492769]}}, {"type": "Feature", "properties": {"norad_id": 35663, "name": "COSMOS 2251 DEB", "group": "cosmos-2251-debris", "lat": -34.76183631544293, "lon": -26.358685400719573, "alt_km": 676.485019683847, "timestamp": "2025-12-03T15:48:03.462551+00:00", "meta": {"OBJECT_NAME": "COSMOS 2251 DEB", "OBJECT_ID": "1993-036APE", "EPOCH": "2025-11-30T11:26:45.384288", "MEAN_MOTION": 14.65332391, "ECCENTRICITY": 0.00074535, "INCLINATION": 74.0171, "RA_OF_ASC_NODE": 148.2949, "ARG_OF_PERICENTER": 219.2944, "MEAN_ANOMALY": 140.7685, "EPHEMERIS_TYPE": 0, "CLASSIFICATION_TYPE": "U", "NORAD_CAT_ID": 35663, "ELEMENT_SET_NO": 999, "REV_AT_EPOCH": 73202, "BSTAR": 0.0015821861, "MEAN_MOTION_DOT": 8.525e-05, "MEAN_MOTION_DDOT": 0}, "tle": {"line1": "1 35663U 93036APE 25334.47691417  .00008525  00000+0  15822-2 0  9999", "line2": "2 35663  74.0171 148.2949 0007453 219.2944 140.7685 14.65332391732024"}}, "geometry": {"type": "Point", "coordinates": [-26.358685400719573, -34.76183631544293]}}, {"type": "Feature", "properties": {"norad_id": 35667, "name": "COSMOS 2251 DEB", "group": "cosmos-2251-debris", "lat": 73.81519707959657, "lon": -122.49361827813762, "alt_km": 695.8480456482521, "timestamp": "2025-12-03T15:48:03.462560+00:00", "meta": {"OBJECT_NAME": "COSMOS 2251 DEB", "OBJECT_ID": "1993-036APJ", "EPOCH": "2025-12-03T05:32:00.225888", "MEAN_MOTION": 14.59863315, "ECCENTRICITY": 0.00204608, "INCLINATION": 74.0542, "RA_OF_ASC_NODE": 158.2289, "ARG_OF_PERICENTER": 220.1527, "MEAN_ANOMALY": 139.8128, "EPHEMERIS_TYPE": 0, "CLASSIFICATION_TYPE": "U", "NORAD_CAT_ID": 35667, "ELEMENT_SET_NO": 999, "REV_AT_EPOCH": 70664, "BSTAR": 0.0013542435, "MEAN_MOTION_DOT": 6.475e-05, "MEAN_MOTION_DDOT": 0}, "tle": {"line1": "1 35667U 93036APJ 25337.23055817  .00006475  00000+0  13542-2 0  9997", "line2": "2 35667  74.0542 158.2289 0020460 220.1527 139.8128 14.59863315706647"}}, "geometry": {"type": "Point", "coordinates": [-122.49361827813762, 73.81519707959657]}}, {"type": "Feature", "properties": {"norad_id": 35668, "name": "COSMOS 2251 DEB", "group": "cosmos-2251-debris", "lat": 65.40939978865221, "lon": -83.35969189571885, "alt_km": 669.068201089156, "timestamp": "2025-12-03T15:48:03.462569+00:00", "meta": {"OBJECT_NAME": "COSMOS 2251 DEB", "OBJECT_ID": "1993-036APK", "EPOCH": "2025-12-03T02:21:36.856800", "MEAN_MOTION": 14.63936697, "ECCENTRICITY": 0.00829488, "INCLINATION": 74.0461, "RA_OF_ASC_NODE": 239.0259, "ARG_OF_PERICENTER": 346.4107, "MEAN_ANOMALY": 13.4826, "EPHEMERIS_TYPE": 0, "CLASSIFICATION_TYPE": "U", "NORAD_CAT_ID": 35668, "ELEMENT_SET_NO": 999, "REV_AT_EPOCH": 87506, "BSTAR": 0.00043415867, "MEAN_MOTION_DOT": 2.356e-05, "MEAN_MOTION_DDOT": 0}, "tle": {"line1": "1 35668U 93036APK 25337.09834325  .00002356  00000+0  43416-3 0  9999", "line2": "2 35668  74.0461 239.0259 0082948 346.4107  13.4826 14.63936697875062"}}, "geometry": {"type": "Point", "coordinates": [-83.35969189571885, 65.40939978865221]}}, {"type": "Feature", "properties": {"norad_id": 35669, "name": "COSMOS 2251 DEB", "group": "cosmos-2251-debris", "lat": -57.66720404189549, "lon": 146.9813821306367, "alt_km": 769.9140733691938, "timestamp": "2025-12-03T15:48:03.462578+00:00", "meta": {"OBJECT_NAME": "COSMOS 2251 DEB", "OBJECT_ID": "1993-036APL", "EPOCH": "2025-11-22T23:34:15.709728", "MEAN_MOTION": 13.57109563, "ECCENTRICITY": 0.03876416, "INCLINATION": 73.8603, "RA_OF_ASC_NODE": 191.6143, "ARG_OF_PERICENTER": 306.7499, "MEAN_ANOMALY": 49.8593, "EPHEMERIS_TYPE": 0, "CLASSIFICATION_TYPE": "U", "NORAD_CAT_ID": 35669, "ELEMENT_SET_NO": 999, "REV_AT_EPOCH": 60521, "BSTAR": 0.00098529597, "MEAN_MOTION_DOT": 1.118e-05, "MEAN_MOTION_DDOT": 0}, "tle": {"line1": "1 35669U 93036APL 25326.98212627  .00001118  00000+0  98530-3 0  9993", "line2": "2 35669  73.8603 191.6143 0387641 306.7499  49.8593 13.57109563605212"}}, "geometry": {"type": "Point", "coordinates": [146.9813821306367, -57.66720404189549]}}]}